NUSAT-1 (FRESCO)        
1 41557U 16033B   22144.50678301  .00021235  00000+0  64170-3 0  9991
2 41557  97.3866 242.1742 0012759 105.1709 310.5051 15.34175897333714
BEESAT-4                
1 41619U 16040W   22144.38723967  .00016577  00000+0  56316-3 0  9999
2 41619  97.2186 195.6673 0009694 191.6756 168.4262 15.30504238317041
CAS-2T & KS-1Q          
1 41847U 16066G   22144.41590984  .00000662  00000+0  11068-3 0  9998
2 41847  98.5518 209.1082 0362738 281.8279  74.2447 14.38554302290891
NAYIF-1 (EO-88)         
1 42017U 17008BX  22144.43350323  .00019195  00000+0  58615-3 0  9998
2 42017  97.2702 210.9059 0003892 345.6969  14.4163 15.33936443293399
ZHUHAI-1 02 (CAS-4B)    
1 42759U 17034B   22144.33631098  .00005504  00000+0  32986-3 0  9992
2 42759  43.0169 105.6197 0007712 145.0140 339.5324 15.11734207272701
ZHUHAI-1 01 (CAS-4A)    
1 42761U 17034D   22144.37569355  .00005442  00000+0  32545-3 0  9997
2 42761  43.0167 104.2037 0007959 146.2377 350.0187 15.11827239272712
MAX VALIER SAT          
1 42778U 17036P   22144.07446225  .00012613  00000+0  48277-3 0  9991
2 42778  97.2075 186.0165 0012361  60.4593 299.7876 15.26619495273184
RADFXSAT (FOX-1B)       
1 43017U 17073E   22144.59440363  .00004179  00000+0  31964-3 0  9996
2 43017  97.6776  39.7598 0247497 265.9715  91.3177 14.81282595243583
FOX-1D (AO-92)          
1 43137U 18004AC  22144.47299247  .00013401  00000+0  47797-3 0  9993
2 43137  97.3685 219.8519 0009322  90.8801 269.3507 15.28972541242683
DIWATA-2B               
1 43678U 18084H   22144.44259115  .00001231  00000+0  12673-3 0  9991
2 43678  97.9666 277.4324 0010205  12.4651 347.6827 14.92131141194276
ES'HAIL 2               
1 43700U 18090A   22144.47279200  .00000136  00000+0  00000+0 0  9994
2 43700   0.0102 332.6789 0001124  95.2290  10.1104  1.00272018 12788
FOX-1CLIFF (AO-95)      
1 43770U 18099N   22144.45052190  .00003709  00000+0  33230-3 0  9999
2 43770  97.6206 211.4239 0013857   2.0655 358.0621 14.96327166189421
ITASAT 1                
1 43786U 18099AE  22142.17284358  .00003835  00000+0  34214-3 0  9999
2 43786  97.6233 210.1094 0014690   1.5593 358.5672 14.96473746189128
JY1SAT (JO-97)          
1 43803U 18099AX  22144.47177714  .00004813  00000+0  42276-3 0  9995
2 43803  97.6203 212.0989 0014118 355.5648   4.5446 14.96963466189486
UWE-4                   
1 43880U 18111E   22144.55560561  .00005197  00000+0  44386-3 0  9990
2 43880  97.6696  51.2824 0013432  49.2880 310.9506 14.98033393186129
NEXUS (FO-99)           
1 43937U 19003F   22144.56561824  .00016133  00000+0  55154-3 0  9995
2 43937  97.1324 178.8531 0019463 235.0066 124.9349 15.30163911186324
PSAT2 (NO-104)          
1 44354U 19036R   22144.26669891  .00082901 -43921-5  78534-3 0  9994
2 44354  28.5252 345.6624 0242087  58.4864 303.9147 15.36475392160957
JAISAT-1                
1 44419U 19038F   22144.49535166  .00009851  00000+0  49977-3 0  9996
2 44419  97.6338 114.4350 0018406 209.0379 150.9831 15.16993158159423
DUCHIFAT-3              
1 44854U 19089C   22144.56205809  .00006708  00000+0  52165-3 0  9992
2 44854  36.9663 241.9670 0008594  20.2602 357.7919 15.00944543134348
CAS-6 (TO-108)          
1 44881U 19093C   22144.53767018  .00001051  00000+0  13998-3 0  9996
2 44881  97.8919 224.0892 0013640 263.8019  96.1643 14.81702434131233
RS-44 & BREEZE-KM R/B   
1 44909U 19096E   22144.58023868  .00000014  00000+0  98756-5 0  9998
2 44909  82.5226 246.1319 0217523  15.8618 344.9155 12.79713295112458
ORBITAL FACTORY 2 (OF-2)
1 45113U 19071C   22144.30443111  .00028164  00000+0  60638-3 0  9998
2 45113  51.6376 178.0905 0010542  74.6492 285.5659 15.44339929129649
HUSKYSAT-1 (HO-107)     
1 45119U 19071J   22144.36158968  .00024287  00000+0  53852-3 0  9995
2 45119  51.6387 177.7010 0010398  71.6232 288.5885 15.43554698129643
BY70-2                  
1 45857U 20042B   22144.55503550  .00012107  00000+0  16219-2 0  9999
2 45857  97.9547 221.6295 0011272 185.3507 174.7591 14.79516826101927
SALSAT                  
1 46495U 20068K   22144.41898206  .00003118  00000+0  22704-3 0  9995
2 46495  97.7279  85.7156 0016648   6.7812 353.3635 15.04416447 90577
BY70-3                  
1 46839U 20079N   22144.48953558  .00033539  00000+0  81070-3 0  9999
2 46839  97.1985 216.9123 0006693  71.3216  26.0949 15.41060539 86557
RADFXSAT-2 (AO-109)     
1 47311U 21002C   22144.34267560  .00011093  00000+0  45146-3 0  9993
2 47311  60.6852  92.9848 0012425 306.7029  53.2916 15.24932506 74785
UVSQ-SAT                
1 47438U 21006AB  22144.44553694  .00008664  00000+0  46084-3 0  9996
2 47438  97.4384 203.9512 0011688   6.7211 353.4176 15.15440076 73648
DIY-1 (ARDUIQUBE)       
1 47963U 21022AH  22144.27523473  .00019399  00000+0  11027-2 0  9995
2 47963  97.5346  45.9239 0016064 209.0989 150.9349 15.12819763 63295
XW-3 (CAS-9)            
1 50466U 21131B   22144.38359516  .00000387  00000+0  14120-3 0  9990
2 50466  98.5806 221.6483 0004113 204.3630 155.7363 14.38491533 21455
TEVEL-3                 
1 50988U 22002E   22144.43048010  .00012857  00000+0  70800-3 0  9999
2 50988  97.4815 211.8178 0010910 140.7969 231.5988 15.14106777 19781
TEVEL-8                 
1 50989U 22002F   22144.58498144  .00012894  00000+0  71094-3 0  9990
2 50989  97.4828 211.9829 0011021 139.9793 330.6142 15.14059673 19807
TEVEL-5                 
1 50998U 22002Q   22144.46670435  .00012800  00000+0  69547-3 0  9999
2 50998  97.4804 211.9268 0012582 138.4325 277.4379 15.14568750 19795
TEVEL-6                 
1 50999U 22002R   22144.45849414  .00012848  00000+0  69799-3 0  9995
2 50999  97.4807 211.9183 0012502 138.1813 234.4688 15.14572794 19795
TEVEL-1                 
1 51013U 22002AF  22144.44031457  .00012863  00000+0  70879-3 0  9990
2 51013  97.4812 211.8153 0010786 141.5894 274.4203 15.14083800 19785
TEVEL-7                 
1 51062U 22002CG  22144.44568468  .00012894  00000+0  71121-3 0  9996
2 51062  97.4826 211.8378 0010986 140.4886 285.1526 15.14045255 19783
TEVEL-4                 
1 51063U 22002CH  22144.44416845  .00012852  00000+0  70908-3 0  9994
2 51063  97.4824 211.8350 0010930 140.1266 275.3391 15.14038206 19789
TEVEL-2                 
1 51069U 22002CP  22144.43937678  .00012900  00000+0  71047-3 0  9990
2 51069  97.4807 211.8171 0010911 141.5886 274.5002 15.14099123 19784
